[{"OBJECT_NAME":"STARLINK-30131","OBJECT_ID":"2023-079L","EPOCH":"2026-03-09T22:00:01.999584","MEAN_MOTION":15.17301963,"ECCENTRICITY":0.00020252,"INCLINATION":43.0004,"RA_OF_ASC_NODE":79.5928,"ARG_OF_PERICENTER":274.1276,"MEAN_ANOMALY":22.6014,"EPHEMERIS_TYPE":0,"CLASSIFICATION_TYPE":"U","NORAD_CAT_ID":56833,"ELEMENT_SET_NO":999,"REV_AT_EPOCH":578,"BSTAR":0.061566052,"MEAN_MOTION_DOT":0.0135934,"MEAN_MOTION_DDOT":0},{"OBJECT_NAME":"OBJECT N","OBJECT_ID":"2019-093N","EPOCH":"2026-03-09T21:41:56.087232","MEAN_MOTION":15.29897693,"ECCENTRICITY":0.0006278,"INCLINATION":98.0505,"RA_OF_ASC_NODE":226.9456,"ARG_OF_PERICENTER":33.3806,"MEAN_ANOMALY":326.7828,"EPHEMERIS_TYPE":0,"CLASSIFICATION_TYPE":"U","NORAD_CAT_ID":44891,"ELEMENT_SET_NO":999,"REV_AT_EPOCH":33957,"BSTAR":0.0010567776,"MEAN_MOTION_DOT":0.00030617,"MEAN_MOTION_DDOT":0}]
